GLOBALSTAR M068         
1 32266U 07048D   25016.44100753 -.00000090  00000+0  77406-4 0  9993
2 32266  51.9898  44.8261 0001240 152.6652 356.4822 12.62813400798382
GLOBALSTAR M079         
1 37188U 10054A   25016.94547111 -.00000091  00000+0  73016-4 0  9994
2 37188  52.0018 240.1933 0000893  60.9870  44.8477 12.62270069657352
GLOBALSTAR M074         
1 37189U 10054B   25016.89592306 -.00000086  00000+0  98999-4 0  9996
2 37189  51.9994 239.6896 0001185  76.4032  44.2935 12.62261962657953
GLOBALSTAR M076         
1 37190U 10054C   25016.66594249 -.00000074  00000+0  16497-3 0  9990
2 37190  52.0007 240.5464 0001192  60.9519 334.6439 12.62276512657648
GLOBALSTAR M077         
1 37191U 10054D   25016.91739860 -.00000116  00000+0 -66480-4 0  9995
2 37191  52.0043 196.5936 0001110  90.5549  67.0854 12.62270003658047
GLOBALSTAR M075         
1 37192U 10054E   25016.92637203 -.00000062  00000+0  23441-3 0  9993
2 37192  51.9952 282.0943 0000879  67.1485  13.1491 12.62271944656743
GLOBALSTAR M073         
1 37193U 10054F   25016.94512569 -.00000116  00000+0 -65573-4 0  9997
2 37193  52.0030 195.7390 0001098  84.0667  80.7416 12.62262562658737
GLOBALSTAR M083         
1 37739U 11033A   25016.79977199 -.00000099  00000+0  24897-4 0  9991
2 37739  51.9847 145.1185 0000766 111.1905  53.4878 12.62270722627738
GLOBALSTAR M088         
1 37740U 11033B   25016.53344010 -.00000083  00000+0  11696-3 0  9990
2 37740  51.9746  51.5486 0000298 136.2583  17.8386 12.62267419623241
GLOBALSTAR M091         
1 37741U 11033C   25016.47026782 -.00000096  00000+0  40797-4 0  9996
2 37741  52.0021  15.0258 0000077 211.0875 315.1704 12.62272696624289
GLOBALSTAR M085         
1 37742U 11033D   25016.90432822 -.00000079  00000+0  13817-3 0  9994
2 37742  51.9889 324.8774 0000316  40.3740 359.5306 12.62263943624593
GLOBALSTAR M081         
1 37743U 11033E   25016.84831632 -.00000088  00000+0  85534-4 0  9996
2 37743  51.9980 327.7393 0000573  23.0990   3.5674 12.62275296624739
GLOBALSTAR M089         
1 37744U 11033F   25016.90315351 -.00000067  00000+0  20393-3 0  9997
2 37744  51.9933 281.8320 0001041  62.2254  32.4844 12.62265210625586
GLOBALSTAR M084         
1 38040U 11080A   25016.76965429 -.00000115  00000+0 -61486-4 0  9994
2 38040  51.9994 149.4420 0001237  99.5547  48.5626 12.62273429603547
GLOBALSTAR M080         
1 38041U 11080B   25016.82672965 -.00000120  00000+0 -88665-4 0  9996
2 38041  52.0046 150.8258 0001271  85.0972  80.0430 12.62260403603679
GLOBALSTAR M082         
1 38042U 11080C   25016.67828978 -.00000081  00000+0  12654-3 0  9996
2 38042  52.0076 106.7053 0000826 155.4787 356.6158 12.62272042604365
GLOBALSTAR M092         
1 38043U 11080D   25016.88841906 -.00000111  00000+0 -40953-4 0  9995
2 38043  52.0055 196.4343 0001153  94.6967  52.7375 12.62272116602847
GLOBALSTAR M090         
1 38044U 11080E   25016.70782885 -.00000080  00000+0  13334-3 0  9993
2 38044  51.9886 100.6193 0000626 136.2204  29.8044 12.62265659604483
GLOBALSTAR M086         
1 38045U 11080F   25016.65457206 -.00000083  00000+0  11494-3 0  9992
2 38045  51.9900 101.3203 0000609  37.8794 126.4712 12.62265644604426
GLOBALSTAR M097         
1 39072U 13005A   25016.88271075 -.00000088  00000+0  86783-4 0  9994
2 39072  52.0065  15.0200 0000144  37.8496 322.2381 12.62269034551709
GLOBALSTAR M093         
1 39073U 13005B   25016.93486305 -.00000097  00000+0  36999-4 0  9999
2 39073  51.9831   8.4019 0000184   4.5563 355.5305 12.62271912551661
GLOBALSTAR M094         
1 39074U 13005C   25016.93529352 -.00000069  00000+0  19193-3 0  9995
2 39074  51.9961 282.6366 0000640  39.8053 320.2861 12.62267093553279
GLOBALSTAR M096         
1 39075U 13005D   25016.86933443 -.00000085  00000+0  10469-3 0  9993
2 39075  52.0096 331.2328 0000299  15.2407 344.8469 12.62266685552182
GLOBALSTAR M078         
1 39076U 13005E   25016.52558686  .00000037  00000+0  78517-3 0  9993
2 39076  51.9882  56.9900 0001055 181.7028 178.3835 12.62268885550763
GLOBALSTAR M095         
1 39077U 13005F   25016.55239287 -.00000089  00000+0  79678-4 0  9998
2 39077  51.9810  54.1833 0000545 198.0416 162.0431 12.62265376550983
GLOBALSTAR M087         
1 52888U 22064A   25015.73445186 -.00000110  00000+0 -11847-4 0  9994
2 52888  51.9758 198.2507 0029341 328.8831  31.0303 12.73897161125780
